NORAD_CAT_ID,OBJECT_NAME,OBJECT_TYPE,EPOCH,MEAN_MOTION,ECCENTRICITY,INCLINATION,RA_OF_ASC_NODE,ARG_OF_PERICENTER,MEAN_ANOMALY,BSTAR,MEAN_MOTION_DOT,MEAN_MOTION_DDOT,TLE_LINE0,TLE_LINE1,TLE_LINE2,SEMIMAJOR_AXIS,PERIOD,APOGEE,PERIGEE,DECAYED
53847.0,STARLINK-4777,PAYLOAD,2024-03-12 09:08:16,15.08838883,0.0001233,53.2195,319.0746,91.3198,268.7935,0.00011809,1.592e-05,0.0,0 STARLINK-4777,1 53847U 22114AF  24072.38075147  .00001592  00000-0  11809-3 0  9996,2 53847  53.2195 319.0746 0001233  91.3198 268.7935 15.08838883 82635,6917.884,95.438,540.602,538.896,0.0
53847.0,STARLINK-4777,PAYLOAD,2024-03-13 01:02:09,15.08830645,0.0001293,53.2187,316.0971,86.2062,273.9078,6.0847e-05,6.8e-06,0.0,0 STARLINK-4777,1 53847U 22114AF  24073.04316132  .00000680  00000-0  60847-4 0  9996,2 53847  53.2187 316.0971 0001293  86.2062 273.9078 15.08830645 82737,6917.909,95.438,540.668,538.879,0.0
53847.0,STARLINK-4777,PAYLOAD,2024-03-13 08:59:04,15.08843499,0.0001354,53.2183,314.6122,92.2705,267.8442,0.00011089,1.477e-05,0.0,0 STARLINK-4777,1 53847U 22114AF  24073.37435258  .00001477  00000-0  11089-3 0  9991,2 53847  53.2183 314.6122 0001354  92.2705 267.8442 15.08843499 82787,6917.87,95.437,540.671,538.798,0.0
53847.0,STARLINK-4777,PAYLOAD,2024-03-13 21:42:09,15.08835418,0.0001265,53.2177,312.2311,83.785,276.3286,2.1868e-05,6e-07,0.0,0 STARLINK-4777,1 53847U 22114AF  24073.90428220  .00000060  00000-0  21868-4 0  9995,2 53847  53.2177 312.2311 0001265  83.7850 276.3286 15.08835418 83404,6917.894,95.438,540.635,538.884,0.0
53847.0,STARLINK-4777,PAYLOAD,2024-03-14 00:52:56,15.08837834,0.0001381,53.2185,311.6361,82.9885,277.1264,3.8727e-05,3.28e-06,0.0,0 STARLINK-4777,1 53847U 22114AF  24074.03676058  .00000328  00000-0  38727-4 0  9993,2 53847  53.2185 311.6361 0001381  82.9885 277.1264 15.08837834 82889,6917.887,95.438,540.707,538.797,0.0
53847.0,STARLINK-4777,PAYLOAD,2024-03-14 08:49:51,15.08850167,0.0001621,53.2186,310.1474,73.8883,286.2288,0.00010387,1.366e-05,0.0,0 STARLINK-4777,1 53847U 22114AF  24074.36795190  .00001366  00000-0  10387-3 0  9992,2 53847  53.2186 310.1474 0001621  73.8883 286.2288 15.08850167 82930,6917.849,95.437,540.836,538.593,0.0
53847.0,STARLINK-4777,PAYLOAD,2024-03-14 19:57:34,15.08832184,0.0001477,53.2186,308.0687,82.7681,277.3479,0.00010656,1.408e-05,0.0,0 STARLINK-4777,1 53847U 22114AF  24074.83164451  .00001408  00000-0  10656-3 0  9990,2 53847  53.2186 308.0687 0001477  82.7681 277.3479 15.08832184 83007,6917.904,95.438,540.791,538.748,0.0
53847.0,STARLINK-4777,PAYLOAD,2024-03-14 21:32:57,15.08835604,0.0001522,53.2183,307.7692,78.8843,281.232,1.7873e-05,-4e-08,0.0,0 STARLINK-4777,1 53847U 22114AF  24074.89788478 -.00000004  00000-0  17873-4 0  9998,2 53847  53.2183 307.7692 0001522  78.8843 281.2320 15.08835604 83552,6917.894,95.438,540.812,538.706,0.0
53847.0,STARLINK-4777,PAYLOAD,2024-03-15 00:43:43,15.08843275,0.0001589,53.2183,307.1756,80.9495,279.1676,2.9836e-05,1.87e-06,0.0,0 STARLINK-4777,1 53847U 22114AF  24075.03036008  .00000187  00000-0  29836-4 0  9993,2 53847  53.2183 307.1756 0001589  80.9495 279.1676 15.08843275 83033,6917.87,95.437,540.835,538.636,0.0
53847.0,STARLINK-4777,PAYLOAD,2024-03-16 00:34:30,15.08841983,0.0001489,53.2176,302.7112,82.9764,277.1398,6.4492e-05,7.39e-06,0.0,0 STARLINK-4777,1 53847U 22114AF  24076.02396005  .00000739  00000-0  64492-4 0  9999,2 53847  53.2176 302.7112 0001489  82.9764 277.1398 15.08841983 83721,6917.874,95.437,540.769,538.709,0.0
53847.0,STARLINK-4777,PAYLOAD,2024-03-16 21:14:30,15.08842766,0.000124,53.2166,298.8478,94.7489,265.3644,7.2004e-05,8.58e-06,0.0,0 STARLINK-4777,1 53847U 22114AF  24076.88507833  .00000858  00000-0  72004-4 0  9996,2 53847  53.2166 298.8478 0001240  94.7489 265.3644 15.08842766 83318,6917.872,95.437,540.595,538.879,0.0
53847.0,STARLINK-4777,PAYLOAD,2024-03-17 00:25:16,15.0884326,0.0001239,53.2165,298.2527,95.2557,264.8576,7.4534e-05,8.99e-06,0.0,0 STARLINK-4777,1 53847U 22114AF  24077.01755768  .00000899  00000-0  74534-4 0  9999,2 53847  53.2165 298.2527 0001239  95.2557 264.8576 15.08843260 83875,6917.87,95.437,540.593,538.878,0.0
53847.0,STARLINK-4777,PAYLOAD,2024-03-17 21:05:17,15.08840836,0.0001212,53.2172,294.3854,98.1601,261.9529,6.8741e-05,8.06e-06,0.0,0 STARLINK-4777,1 53847U 22114AF  24077.87867833  .00000806  00000-0  68741-4 0  9991,2 53847  53.2172 294.3854 0001212  98.1601 261.9529 15.08840836 84004,6917.878,95.438,540.581,538.904,0.0
53847.0,STARLINK-4777,PAYLOAD,2024-03-18 00:16:04,15.08840901,0.0001209,53.217,293.7909,96.5484,263.5646,6.7037e-05,7.79e-06,0.0,0 STARLINK-4777,1 53847U 22114AF  24078.01115834  .00000779  00000-0  67037-4 0  9991,2 53847  53.2170 293.7909 0001209  96.5484 263.5646 15.08840901 83485,6917.878,95.437,540.579,538.906,0.0
53847.0,STARLINK-4777,PAYLOAD,2024-03-18 20:56:04,15.08839747,0.0001202,53.2169,289.9247,94.7207,265.3922,4.8545e-05,4.85e-06,0.0,0 STARLINK-4777,1 53847U 22114AF  24078.87227981  .00000485  00000-0  48545-4 0  9999,2 53847  53.2169 289.9247 0001202  94.7207 265.3922 15.08839747 84159,6917.881,95.438,540.578,538.915,0.0
53847.0,STARLINK-4777,PAYLOAD,2024-03-19 20:46:51,15.08848552,0.0001224,53.2164,285.4662,89.9916,270.1217,0.000129,1.766e-05,0.0,0 STARLINK-4777,1 53847U 22114AF  24079.86587212  .00001766  00000-0  12900-3 0  9993,2 53847  53.2164 285.4662 0001224  89.9916 270.1217 15.08848552 83764,6917.854,95.437,540.566,538.873,0.0
53847.0,STARLINK-4777,PAYLOAD,2024-03-20 20:37:39,15.08835231,0.0001268,53.2159,281.008,129.6829,230.4275,-6.4376e-06,-3.9e-06,0.0,0 STARLINK-4777,1 53847U 22114AF  24080.85948403 -.00000390  00000-0 -64376-5 0  9997,2 53847  53.2159 281.0080 0001268 129.6829 230.4275 15.08835231 83917,6917.895,95.438,540.637,538.883,0.0
53847.0,STARLINK-4777,PAYLOAD,2024-03-21 06:09:58,15.08836535,0.0001187,53.2167,279.2234,104.8366,255.2757,1.0362e-05,-1.23e-06,0.0,0 STARLINK-4777,1 53847U 22114AF  24081.25692522 -.00000123  00000-0  10362-4 0  9998,2 53847  53.2167 279.2234 0001187 104.8366 255.2757 15.08836535 84512,6917.891,95.438,540.577,538.935,0.0
53847.0,STARLINK-4777,PAYLOAD,2024-03-21 20:28:26,15.08845389,0.0001232,53.217,276.5467,95.4297,264.6836,5.9382e-05,6.57e-06,0.0,0 STARLINK-4777,1 53847U 22114AF  24081.85308058  .00000657  00000-0  59382-4 0  9998,2 53847  53.2170 276.5467 0001232  95.4297 264.6836 15.08845389 84062,6917.864,95.437,540.581,538.877,0.0
53847.0,STARLINK-4777,PAYLOAD,2024-03-22 12:22:17,15.08842081,0.0001259,53.2161,273.5732,96.1405,263.9731,0.00029743,4.449e-05,0.0,0 STARLINK-4777,1 53847U 22114AF  24082.51548172  .00004449  00000-0  29743-3 0  9995,2 53847  53.2161 273.5732 0001259  96.1405 263.9731 15.08842081 84705,6917.874,95.437,540.61,538.868,0.0
53847.0,STARLINK-4777,PAYLOAD,2024-03-22 20:19:13,15.08843872,0.0001216,53.2157,272.0858,93.9212,266.1919,0.00028223,4.207e-05,0.0,0 STARLINK-4777,1 53847U 22114AF  24082.84668236  .00004207  00000-0  28223-3 0  9999,2 53847  53.2157 272.0858 0001216  93.9212 266.1919 15.08843872 84754,6917.869,95.437,540.575,538.892,0.0
53847.0,STARLINK-4777,PAYLOAD,2024-03-23 12:13:04,15.08838892,0.0001264,53.2155,269.1126,94.2681,265.8455,9.3882e-05,1.207e-05,0.0,0 STARLINK-4777,1 53847U 22114AF  24083.50908551  .00001207  00000-0  93882-4 0  9991,2 53847  53.2155 269.1126 0001264  94.2681 265.8455 15.08838892 84313,6917.884,95.438,540.623,538.874,0.0
53847.0,STARLINK-4777,PAYLOAD,2024-03-23 18:34:37,15.08838498,0.0001206,53.2157,267.9233,99.1861,260.9268,9.8849e-05,1.286e-05,0.0,0 STARLINK-4777,1 53847U 22114AF  24083.77404696  .00001286  00000-0  98849-4 0  9996,2 53847  53.2157 267.9233 0001206  99.1861 260.9268 15.08838498 84893,6917.885,95.438,540.584,538.916,0.0
53847.0,STARLINK-4777,PAYLOAD,2024-03-24 12:03:52,15.08843685,0.0002212,53.2153,264.6534,77.6066,282.5173,0.00024456,3.607e-05,0.0,0 STARLINK-4777,1 53847U 22114AF  24084.50268776  .00003607  00000-0  24456-3 0  9996,2 53847  53.2153 264.6534 0002212  77.6066 282.5173 15.08843685 85006,6917.869,95.437,541.264,538.204,0.0
53847.0,STARLINK-4777,PAYLOAD,2024-03-24 18:25:24,15.08839461,0.000142,53.216,263.4621,90.3394,269.7761,8.9567e-05,1.138e-05,0.0,0 STARLINK-4777,1 53847U 22114AF  24084.76764761  .00001138  00000-0  89567-4 0  9991,2 53847  53.2160 263.4621 0001420  90.3394 269.7761 15.08839461 84505,6917.882,95.438,540.729,538.765,0.0
53847.0,STARLINK-4777,PAYLOAD,2024-03-25 18:16:11,15.08853221,0.0001372,53.2164,259.0019,85.7124,274.4025,0.00048478,7.438e-05,0.0,0 STARLINK-4777,1 53847U 22114AF  24085.76124437  .00007438  00000-0  48478-3 0  9996,2 53847  53.2164 259.0019 0001372  85.7124 274.4025 15.08853221 85198,6917.84,95.437,540.654,538.756,0.0
53847.0,STARLINK-4777,PAYLOAD,2024-03-26 11:45:26,15.08841586,0.0001085,53.2163,255.7304,98.2361,261.8754,0.00018383,2.639e-05,0.0,0 STARLINK-4777,1 53847U 22114AF  24086.48988762  .00002639  00000-0  18383-3 0  9995,2 53847  53.2163 255.7304 0001085  98.2361 261.8754 15.08841586 84762,6917.876,95.437,540.491,538.99,0.0
53847.0,STARLINK-4777,PAYLOAD,2024-03-26 14:56:12,15.08828524,0.0001292,53.2165,255.1359,99.3492,260.7647,-0.00016297,-2.88e-05,0.0,0 STARLINK-4777,1 53847U 22114AF  24086.62237096 -.00002880  00000-0 -16297-3 0  9990,2 53847  53.2165 255.1359 0001292  99.3492 260.7647 15.08828524 85324,6917.915,95.438,540.674,538.887,0.0
53847.0,STARLINK-4777,PAYLOAD,2024-03-26 18:06:58,15.08834529,0.0001133,53.2158,254.5418,85.4275,274.6846,-7.2962e-05,-1.449e-05,0.0,0 STARLINK-4777,1 53847U 22114AF  24086.75484924 -.00001449  00000-0 -72962-4 0  9990,2 53847  53.2158 254.5418 0001133  85.4275 274.6846 15.08834529 85343,6917.897,95.438,540.546,538.978,0.0
53847.0,STARLINK-4777,PAYLOAD,2024-03-27 11:36:13,15.08834375,0.0001666,53.2169,251.2721,105.2582,254.8594,0.00015215,2.134e-05,0.0,0 STARLINK-4777,1 53847U 22114AF  24087.48349228  .00002134  00000-0  15215-3 0  9995,2 53847  53.2169 251.2721 0001666 105.2582 254.8594 15.08834375 84910,6917.898,95.438,540.915,538.61,0.0
